{
    "links": {
        "self": "http://www.neowsapp.com/rest/v1/neo/3719320?api_key=iIulBulltgU6a56xZRHN4H3l9WmuAYTsLGpBGhQ2"
    },
    "id": "3719320",
    "neo_reference_id": "3719320",
    "name": "(2015 KN18)",
    "designation": "2015 KN18",
    "nasa_jpl_url": "http://ssd.jpl.nasa.gov/sbdb.cgi?sstr=3719320",
    "absolute_magnitude_h": 23.5,
    "estimated_diameter": {
        "kilometers": {
            "estimated_diameter_min": 0.0530340723,
            "estimated_diameter_max": 0.1185877909
        },
        "meters": {
            "estimated_diameter_min": 53.0340723319,
            "estimated_diameter_max": 118.5877908577
        },
        "miles": {
            "estimated_diameter_min": 0.0329538346,
            "estimated_diameter_max": 0.0736870142
        },
        "feet": {
            "estimated_diameter_min": 173.9963058693,
            "estimated_diameter_max": 389.0675677576
        }
    },
    "is_potentially_hazardous_asteroid": false,
    "close_approach_data": [
        {
            "close_approach_date": "2012-05-27",
            "close_approach_date_full": "2012-May-27 12:29",
            "epoch_date_close_approach": 1338121740000,
            "relative_velocity": {
                "kilometers_per_second": "18.5037300178",
                "kilometers_per_hour": "66613.428064094",
                "miles_per_hour": "41390.9936768255"
            },
            "miss_distance": {
                "astronomical": "0.2070633467",
                "lunar": "80.5476418663",
                "kilometers": "30976235.621391529",
                "miles": "19247740.2855559402"
            },
            "orbiting_body": "Earth"
        },
        {
            "close_approach_date": "2015-06-03",
            "close_approach_date_full": "2015-Jun-03 16:13",
            "epoch_date_close_approach": 1433347980000,
            "relative_velocity": {
                "kilometers_per_second": "14.725935654",
                "kilometers_per_hour": "53013.3683545613",
                "miles_per_hour": "32940.4454645328"
            },
            "miss_distance": {
                "astronomical": "0.0899478418",
                "lunar": "34.9897104602",
                "kilometers": "13456005.544376966",
                "miles": "8361174.1324794908"
            },
            "orbiting_body": "Earth"
        },
        {
            "close_approach_date": "2015-11-23",
            "close_approach_date_full": "2015-Nov-23 13:54",
            "epoch_date_close_approach": 1448286840000,
            "relative_velocity": {
                "kilometers_per_second": "12.7794520119",
                "kilometers_per_hour": "46006.0272427946",
                "miles_per_hour": "28586.3562053909"
            },
            "miss_distance": {
                "astronomical": "0.4029899757",
                "lunar": "156.7631005473",
                "kilometers": "60286441.996071759",
                "miles": "37460258.0011139142"
            },
            "orbiting_body": "Earth"
        },
        {
            "close_approach_date": "2018-06-06",
            "close_approach_date_full": "2018-Jun-06 17:54",
            "epoch_date_close_approach": 1528307640000,
            "relative_velocity": {
                "kilometers_per_second": "12.5292904102",
                "kilometers_per_hour": "45105.4454766329",
                "miles_per_hour": "28026.7697185222"
            },
            "miss_distance": {
                "astronomical": "0.2335943312",
                "lunar": "90.8681948368",
                "kilometers": "34945214.391594544",
                "miles": "21713949.3337269472"
            },
            "orbiting_body": "Earth"
        },
        {
            "close_approach_date": "2018-11-15",
            "close_approach_date_full": "2018-Nov-15 00:54",
            "epoch_date_close_approach": 1542243240000,
            "relative_velocity": {
                "kilometers_per_second": "13.0882537797",
                "kilometers_per_hour": "47117.7136068736",
                "miles_per_hour": "29277.1148797821"
            },
            "miss_distance": {
                "astronomical": "0.2730870005",
                "lunar": "106.2308431945",
                "kilometers": "40853233.599488935",
                "miles": "25385022.239599903"
            },
            "orbiting_body": "Earth"
        }
    ],
    "orbital_data": {
        "orbit_id": "9",
        "orbit_determination_date": "2017-04-06 08:33:42",
        "first_observation_date": "2015-05-19",
        "last_observation_date": "2015-05-27",
        "data_arc_in_days": 8,
        "observations_used": 27,
        "orbit_uncertainty": "8",
        "minimum_orbit_intersection": ".0884287",
        "jupiter_tisserand_invariant": "4.814",
        "epoch_osculation": "2457163.5",
        "eccentricity": ".3150265071432771",
        "semi_major_axis": "1.319927815046205",
        "inclination": "24.21755280782737",
        "ascending_node_longitude": "65.77665727034734",
        "orbital_period": "553.8902217015698",
        "perihelion_distance": ".9041155657909412",
        "perihelion_argument": "259.3782731125926",
        "aphelion_distance": "1.735740064301468",
        "perihelion_time": "2457240.490148402777",
        "mean_anomaly": "309.9603850382954",
        "mean_motion": ".6499482855899994",
        "equinox": "J2000",
        "orbit_class": {
            "orbit_class_type": "APO",
            "orbit_class_description": "Near-Earth asteroid orbits which cross the Earth’s orbit similar to that of 1862 Apollo",
            "orbit_class_range": "a (semi-major axis) > 1.0 AU; q (perihelion) < 1.017 AU"
        }
    },
    "is_sentry_object": false
}